[{"OBJECT_NAME":"STARLINK-32302","OBJECT_ID":"2024-191A","EPOCH":"2025-09-15T03:42:43.564032","MEAN_MOTION":15.27571132,"ECCENTRICITY":8.837e-5,"INCLINATION":43.0014,"RA_OF_ASC_NODE":65.5699,"ARG_OF_PERICENTER":265.7202,"MEAN_ANOMALY":94.3549,"EPHEMERIS_TYPE":0,"CLASSIFICATION_TYPE":"U","NORAD_CAT_ID":61621,"ELEMENT_SET_NO":999,"REV_AT_EPOCH":5144,"BSTAR":-2.2445344e-5,"MEAN_MOTION_DOT":-8.79e-6,"MEAN_MOTION_DDOT":0},{"OBJECT_NAME":"STARLINK-32364","OBJECT_ID":"2024-191B","EPOCH":"2025-09-15T03:57:33.100416","MEAN_MOTION":15.2754591,"ECCENTRICITY":0.00011309,"INCLINATION":43.004,"RA_OF_ASC_NODE":65.6394,"ARG_OF_PERICENTER":285.9483,"MEAN_ANOMALY":74.1244,"EPHEMERIS_TYPE":0,"CLASSIFICATION_TYPE":"U","NORAD_CAT_ID":61622,"ELEMENT_SET_NO":999,"REV_AT_EPOCH":5069,"BSTAR":7.983128e-5,"MEAN_MOTION_DOT":1.933e-5,"MEAN_MOTION_DDOT":0},{"OBJECT_NAME":"STARLINK-32331","OBJECT_ID":"2024-191C","EPOCH":"2025-09-14T04:42:59.270112","MEAN_MOTION":15.27575078,"ECCENTRICITY":9.864e-5,"INCLINATION":43.0013,"RA_OF_ASC_NODE":74.7498,"ARG_OF_PERICENTER":271.9701,"MEAN_ANOMALY":88.1037,"EPHEMERIS_TYPE":0,"CLASSIFICATION_TYPE":"U","NORAD_CAT_ID":61623,"ELEMENT_SET_NO":999,"REV_AT_EPOCH":5050,"BSTAR":-6.969831e-6,"MEAN_MOTION_DOT":-4.54e-6,"MEAN_MOTION_DDOT":0},{"OBJECT_NAME":"STARLINK-32398","OBJECT_ID":"2024-191D","EPOCH":"2025-09-15T04:14:10.202208","MEAN_MOTION":15.27578843,"ECCENTRICITY":0.00012228,"INCLINATION":43.0044,"RA_OF_ASC_NODE":65.7331,"ARG_OF_PERICENTER":275.5262,"MEAN_ANOMALY":84.5451,"EPHEMERIS_TYPE":0,"CLASSIFICATION_TYPE":"U","NORAD_CAT_ID":61624,"ELEMENT_SET_NO":999,"REV_AT_EPOCH":5069,"BSTAR":7.17832e-6,"MEAN_MOTION_DOT":-6.5e-7,"MEAN_MOTION_DDOT":0},{"OBJECT_NAME":"STARLINK-32365","OBJECT_ID":"2024-191E","EPOCH":"2025-09-15T03:46:25.001184","MEAN_MOTION":15.27576443,"ECCENTRICITY":0.00011751,"INCLINATION":43.0015,"RA_OF_ASC_NODE":65.5868,"ARG_OF_PERICENTER":272.4028,"MEAN_ANOMALY":87.6689,"EPHEMERIS_TYPE":0,"CLASSIFICATION_TYPE":"U","NORAD_CAT_ID":61625,"ELEMENT_SET_NO":999,"REV_AT_EPOCH":5069,"BSTAR":5.7078358e-5,"MEAN_MOTION_DOT":1.309e-5,"MEAN_MOTION_DDOT":0},{"OBJECT_NAME":"STARLINK-32333","OBJECT_ID":"2024-191F","EPOCH":"2025-09-15T04:31:55.871040","MEAN_MOTION":15.27597117,"ECCENTRICITY":0.00037771,"INCLINATION":43.0026,"RA_OF_ASC_NODE":69.2935,"ARG_OF_PERICENTER":267.0159,"MEAN_ANOMALY":93.0261,"EPHEMERIS_TYPE":0,"CLASSIFICATION_TYPE":"U","NORAD_CAT_ID":61626,"ELEMENT_SET_NO":999,"REV_AT_EPOCH":5065,"BSTAR":7.5381846e-5,"MEAN_MOTION_DOT":1.813e-5,"MEAN_MOTION_DDOT":0},{"OBJECT_NAME":"STARLINK-32399","OBJECT_ID":"2024-191G","EPOCH":"2025-09-15T03:16:21.839232","MEAN_MOTION":15.27573082,"ECCENTRICITY":7.823e-5,"INCLINATION":43.0041,"RA_OF_ASC_NODE":58.4996,"ARG_OF_PERICENTER":261.1691,"MEAN_ANOMALY":98.9073,"EPHEMERIS_TYPE":0,"CLASSIFICATION_TYPE":"U","NORAD_CAT_ID":61627,"ELEMENT_SET_NO":999,"REV_AT_EPOCH":5077,"BSTAR":-3.6543564e-5,"MEAN_MOTION_DOT":-1.267e-5,"MEAN_MOTION_DDOT":0},{"OBJECT_NAME":"STARLINK-32421","OBJECT_ID":"2024-191H","EPOCH":"2025-09-15T04:23:25.069920","MEAN_MOTION":15.27581191,"ECCENTRICITY":9.757e-5,"INCLINATION":43.0057,"RA_OF_ASC_NODE":65.7819,"ARG_OF_PERICENTER":285.2356,"MEAN_ANOMALY":74.8388,"EPHEMERIS_TYPE":0,"CLASSIFICATION_TYPE":"U","NORAD_CAT_ID":61628,"ELEMENT_SET_NO":999,"REV_AT_EPOCH":5069,"BSTAR":6.6754751e-5,"MEAN_MOTION_DOT":1.575e-5,"MEAN_MOTION_DDOT":0},{"OBJECT_NAME":"STARLINK-32403","OBJECT_ID":"2024-191J","EPOCH":"2025-09-15T04:08:37.354848","MEAN_MOTION":15.2757813,"ECCENTRICITY":0.00010401,"INCLINATION":43.0029,"RA_OF_ASC_NODE":65.7018,"ARG_OF_PERICENTER":279.0896,"MEAN_ANOMALY":80.9838,"EPHEMERIS_TYPE":0,"CLASSIFICATION_TYPE":"U","NORAD_CAT_ID":61629,"ELEMENT_SET_NO":999,"REV_AT_EPOCH":5069,"BSTAR":1.4332096e-5,"MEAN_MOTION_DOT":1.32e-6,"MEAN_MOTION_DDOT":0},{"OBJECT_NAME":"STARLINK-32390","OBJECT_ID":"2024-191K","EPOCH":"2025-09-15T04:34:31.775520","MEAN_MOTION":15.27606926,"ECCENTRICITY":8.965e-5,"INCLINATION":43.0032,"RA_OF_ASC_NODE":65.84,"ARG_OF_PERICENTER":276.5108,"MEAN_ANOMALY":83.5642,"EPHEMERIS_TYPE":0,"CLASSIFICATION_TYPE":"U","NORAD_CAT_ID":61630,"ELEMENT_SET_NO":999,"REV_AT_EPOCH":5069,"BSTAR":-0.00017267478,"MEAN_MOTION_DOT":-5.014e-5,"MEAN_MOTION_DDOT":0},{"OBJECT_NAME":"STARLINK-32348","OBJECT_ID":"2024-191L","EPOCH":"2025-09-15T04:20:52.980864","MEAN_MOTION":15.27574398,"ECCENTRICITY":0.00010886,"INCLINATION":43.0029,"RA_OF_ASC_NODE":69.2339,"ARG_OF_PERICENTER":276.6767,"MEAN_ANOMALY":83.3961,"EPHEMERIS_TYPE":0,"CLASSIFICATION_TYPE":"U","NORAD_CAT_ID":61631,"ELEMENT_SET_NO":999,"REV_AT_EPOCH":5065,"BSTAR":-3.907387e-6,"MEAN_MOTION_DOT":-3.7e-6,"MEAN_MOTION_DDOT":0},{"OBJECT_NAME":"STARLINK-32455","OBJECT_ID":"2024-191M","EPOCH":"2025-09-15T04:43:04.763424","MEAN_MOTION":15.27580346,"ECCENTRICITY":0.000103,"INCLINATION":43.0051,"RA_OF_ASC_NODE":69.3511,"ARG_OF_PERICENTER":274.0448,"MEAN_ANOMALY":86.0286,"EPHEMERIS_TYPE":0,"CLASSIFICATION_TYPE":"U","NORAD_CAT_ID":61632,"ELEMENT_SET_NO":999,"REV_AT_EPOCH":5065,"BSTAR":4.6569744e-5,"MEAN_MOTION_DOT":1.02e-5,"MEAN_MOTION_DDOT":0},{"OBJECT_NAME":"STARLINK-32396","OBJECT_ID":"2024-191N","EPOCH":"2025-09-15T04:26:25.337472","MEAN_MOTION":15.27586405,"ECCENTRICITY":4.32e-5,"INCLINATION":43.0046,"RA_OF_ASC_NODE":69.2642,"ARG_OF_PERICENTER":302.8706,"MEAN_ANOMALY":57.2104,"EPHEMERIS_TYPE":0,"CLASSIFICATION_TYPE":"U","NORAD_CAT_ID":61633,"ELEMENT_SET_NO":999,"REV_AT_EPOCH":5065,"BSTAR":-4.5769938e-5,"MEAN_MOTION_DOT":-1.521e-5,"MEAN_MOTION_DDOT":0},{"OBJECT_NAME":"STARLINK-32355","OBJECT_ID":"2024-191P","EPOCH":"2025-09-15T04:46:46.821792","MEAN_MOTION":15.27580092,"ECCENTRICITY":0.00011063,"INCLINATION":43.0044,"RA_OF_ASC_NODE":69.3705,"ARG_OF_PERICENTER":283.9942,"MEAN_ANOMALY":76.0787,"EPHEMERIS_TYPE":0,"CLASSIFICATION_TYPE":"U","NORAD_CAT_ID":61634,"ELEMENT_SET_NO":999,"REV_AT_EPOCH":5065,"BSTAR":1.3484702e-5,"MEAN_MOTION_DOT":1.09e-6,"MEAN_MOTION_DDOT":0},{"OBJECT_NAME":"STARLINK-32370","OBJECT_ID":"2024-191Q","EPOCH":"2025-09-15T03:37:10.219008","MEAN_MOTION":15.27572985,"ECCENTRICITY":0.00012592,"INCLINATION":43.0016,"RA_OF_ASC_NODE":65.5372,"ARG_OF_PERICENTER":268.2403,"MEAN_ANOMALY":91.8305,"EPHEMERIS_TYPE":0,"CLASSIFICATION_TYPE":"U","NORAD_CAT_ID":61635,"ELEMENT_SET_NO":999,"REV_AT_EPOCH":5069,"BSTAR":-7.443869e-6,"MEAN_MOTION_DOT":-4.67e-6,"MEAN_MOTION_DDOT":0},{"OBJECT_NAME":"STARLINK-32405","OBJECT_ID":"2024-191R","EPOCH":"2025-09-15T04:52:20.093376","MEAN_MOTION":15.27575366,"ECCENTRICITY":0.00014694,"INCLINATION":43.0043,"RA_OF_ASC_NODE":69.3975,"ARG_OF_PERICENTER":271.4311,"MEAN_ANOMALY":88.6372,"EPHEMERIS_TYPE":0,"CLASSIFICATION_TYPE":"U","NORAD_CAT_ID":61636,"ELEMENT_SET_NO":999,"REV_AT_EPOCH":5065,"BSTAR":-8.629522e-6,"MEAN_MOTION_DOT":-5.0e-6,"MEAN_MOTION_DDOT":0}]
