STARLINK-32302          
1 61621U 24191A   25258.15467088 -.00000879  00000+0 -22445-4 0  9990
2 61621  43.0014  65.5699 0000883 265.7202  94.3549 15.27571132 51445
STARLINK-32364          
1 61622U 24191B   25258.16496644  .00001933  00000+0  79831-4 0  9993
2 61622  43.0040  65.6394 0001130 285.9483  74.1244 15.27545910 50698
STARLINK-32331          
1 61623U 24191C   25257.19651933 -.00000454  00000+0 -69698-5 0  9990
2 61623  43.0013  74.7498 0000986 271.9701  88.1037 15.27575078 50504
STARLINK-32398          
1 61624U 24191D   25258.17650697 -.00000065  00000+0  71783-5 0  9991
2 61624  43.0044  65.7331 0001222 275.5262  84.5451 15.27578843 50694
STARLINK-32365          
1 61625U 24191E   25258.15723381  .00001309  00000+0  57078-4 0  9992
2 61625  43.0015  65.5868 0001175 272.4028  87.6689 15.27576443 50690
STARLINK-32333          
1 61626U 24191F   25258.18884110  .00001813  00000+0  75382-4 0  9992
2 61626  43.0026  69.2935 0003777 267.0159  93.0261 15.27597117 50658
STARLINK-32399          
1 61627U 24191G   25258.13636388 -.00001267  00000+0 -36544-4 0  9992
2 61627  43.0041  58.4996 0000782 261.1691  98.9073 15.27573082 50775
STARLINK-32421          
1 61628U 24191H   25258.18292905  .00001575  00000+0  66755-4 0  9998
2 61628  43.0057  65.7819 0000975 285.2356  74.8388 15.27581191 50690
STARLINK-32403          
1 61629U 24191J   25258.17265457  .00000132  00000+0  14332-4 0  9992
2 61629  43.0029  65.7018 0001040 279.0896  80.9838 15.27578130 50692
STARLINK-32390          
1 61630U 24191K   25258.19064555 -.00005014  00000+0 -17267-3 0  9997
2 61630  43.0032  65.8400 0000896 276.5108  83.5642 15.27606926 50697
STARLINK-32348          
1 61631U 24191L   25258.18116876 -.00000370  00000+0 -39074-5 0  9993
2 61631  43.0029  69.2339 0001088 276.6767  83.3961 15.27574398 50654
STARLINK-32455          
1 61632U 24191M   25258.19658291  .00001020  00000+0  46570-4 0  9996
2 61632  43.0051  69.3511 0001030 274.0448  86.0286 15.27580346 50658
STARLINK-32396          
1 61633U 24191N   25258.18501548 -.00001521  00000+0 -45770-4 0  9997
2 61633  43.0046  69.2642 0000432 302.8706  57.2104 15.27586405 50650
STARLINK-32355          
1 61634U 24191P   25258.19915303  .00000109  00000+0  13485-4 0  9994
2 61634  43.0044  69.3705 0001106 283.9942  76.0787 15.27580092 50652
STARLINK-32370          
1 61635U 24191Q   25258.15081272 -.00000467  00000+0 -74439-5 0  9996
2 61635  43.0016  65.5372 0001259 268.2403  91.8305 15.27572985 50694
STARLINK-32405          
1 61636U 24191R   25258.20301034 -.00000500  00000+0 -86295-5 0  9995
2 61636  43.0043  69.3975 0001469 271.4311  88.6372 15.27575366 50653
